SCD 1                   
1 22490U 93009B   26166.87265731  .00000357  00000+0  46677-4 0  9996
2 22490  24.9679 215.6946 0042106 123.8363  37.2877 14.46118505760921
TECHSAT 1B (GO-32)      
1 25397U 98043D   26167.22147388  .00000030  00000+0  33141-4 0  9995
2 25397  99.0067 159.9557 0001002 165.2007 194.9200 14.24428194451198
SCD 2                   
1 25504U 98060A   26167.05369786  .00000362  00000+0  50288-4 0  9992
2 25504  24.9952  79.1473 0016966 111.0820 271.9229 14.45525509460160
DLR-TUBSAT              
1 25757U 99029B   26166.98451693  .00000058  00000+0  26080-4 0  9993
2 25757  98.6695 162.4490 0014126 358.8952   1.2209 14.52426599433079
TERRA                   
1 25994U 99068A   26167.13049375  .00000315  00000+0  73126-4 0  9996
2 25994  97.9457 216.7186 0001501 193.3628 244.8059 14.61102329409455
MAROC-TUBSAT            
1 27004U 01056D   26167.06309286 -.00000035  00000+0  12912-4 0  9998
2 27004  99.8081 343.9014 0020294 144.0731 327.7488 13.70262448226030
AQUA                    
1 27424U 02022A   26167.17607464  .00000652  00000+0  13949-3 0  9993
2 27424  98.4277 136.4387 0001137  52.8517  68.9689 14.62156853283123
SHIYAN-1 (SY-1)         
1 28220U 04012A   26167.20499221  .00011162  00000+0  34447-3 0  9997
2 28220  97.8693 245.2092 0005672  36.1741 323.9882 15.33740196210944
AURA                    
1 28376U 04026A   26167.16444571  .00000644  00000+0  14019-3 0  9993
2 28376  98.3417 123.6092 0001219  74.4250 285.7085 14.61327790166062
IRS-P5 (CARTOSAT-1)     
1 28649U 05017A   26167.00456122  .00001293  00000+0  13596-3 0  9995
2 28649  97.5308 190.1226 0002606  81.1780 278.9733 14.91046727143641
SINAH 1                 
1 28893U 05043D   26167.16574883  .00000261  00000+0  59031-4 0  9996
2 28893  98.2859 301.4817 0013138 280.3065  79.6656 14.64157070100372
RESURS-DK 1             
1 29228U 06021A   26166.91160514  .00002107  00000+0  12440-3 0  9993
2 29228  69.9341 342.8543 0006926 292.9934  67.0501 15.13214396102385
ARIRANG-2 (KOMPSAT-2)   
1 29268U 06031A   26167.20925295  .00000083  00000+0  23949-4 0  9994
2 29268  97.8299 351.7030 0015927  77.3352  33.6524 14.64659039 61336
LAPAN-TUBSAT            
1 29709U 07001A   26167.24427759  .00000430  00000+0  55853-4 0  9993
2 29709  98.1335 166.4468 0011771 182.1670 177.9495 14.85950961 51012
HAIYANG-1B              
1 31113U 07010A   26166.95616321  .00000068  00000+0  41763-4 0  9999
2 31113  98.3494 148.8491 0012941 200.1501 159.9173 14.31026632   462
COSMO-SKYMED 1          
1 31598U 07023A   26167.19928789  .00002172  00000+0  19352-3 0  9997
2 31598  97.8840 359.0466 0001241  99.2457 260.8905 14.97094839 29646
TERRASAR-X              
1 31698U 07026A   26166.54501914  .00000298  00000+0  17394-4 0  9998
2 31698  97.4452 174.2739 0001604  89.1769 270.9649 15.19148908 52970
WORLDVIEW-1 (WV-1)      
1 32060U 07041A   26166.91346861  .00004932  00000+0  20500-3 0  9999
2 32060  97.3880 286.6750 0002384  24.7149 335.4202 15.24254885 42689
YAOGAN-3                
1 32289U 07055A   26167.18766700  .00002018  00000+0  21094-3 0  9997
2 32289  97.8154 197.0753 0002005  83.3836 276.7610 14.90781167  5727
COSMO-SKYMED 2          
1 32376U 07059A   26167.14838854  .00000338  00000+0  48994-4 0  9996
2 32376  97.8886 350.7614 0001364  86.6770 273.4600 14.82154308  1855
RADARSAT-2              
1 32382U 07061A   26167.19816168  .00000305  00000+0  13500-3 0  9993
2 32382  98.5770 174.1445 0001312  83.6005 276.5326 14.29982487965815
CARTOSAT-2A             
1 32783U 08021A   26167.16715566  .00000898  00000+0  12752-3 0  9997
2 32783  97.7634 215.9105 0013145 111.8912 248.3699 14.79238530978659
HUANJING 1A (HJ-1A)     
1 33320U 08041A   26167.22233669  .00000674  00000+0  86951-4 0  9998
2 33320  97.6675 153.0979 0019869 137.6666 222.6086 14.83983702958266
HUANJING 1B (HJ-1B)     
1 33321U 08041B   26167.19097198  .00000916  00000+0  11699-3 0  9995
2 33321  97.6510 156.2424 0035973 184.2257 175.8659 14.83315328958261
GEOEYE 1                
1 33331U 08042A   26167.19552801  .00000399  00000+0  83791-4 0  9992
2 33331  98.1236 241.1393 0005432  72.0628 288.1166 14.64724979950005
THEOS                   
1 33396U 08049A   26167.19384672  .00000036  00000+0  36739-4 0  9997
2 33396  98.5575 224.5095 0001209  80.3127 279.8186 14.20133388917826
COSMO-SKYMED 3          
1 33412U 08054A   26167.14714853  .00002684  00000+0  18359-3 0  9993
2 33412  97.8283  25.7007 0014275 270.8408  89.1183 15.06947432956787
YAOGAN-4                
1 33446U 08061A   26167.08769116  .00000832  00000+0  10834-3 0  9996
2 33446  97.9308 100.6060 0015742  75.7139 284.5821 14.83198263945500
GOSAT (IBUKI)           
1 33492U 09002A   26167.18380606  .00000973  00000+0  18000-3 0  9996
2 33492  98.0889 278.2776 0001536  85.4132 274.7248 14.67541735931316
DEIMOS-1                
1 35681U 09041A   26167.16896657  .00000230  00000+0  41095-4 0  9994
2 35681  97.7395 324.4403 0001560 132.2166 227.9176 14.75235966906735
DUBAISAT-1              
1 35682U 09041B   26166.93592501  .00000599  00000+0  96254-4 0  9995
2 35682  98.0050 300.2074 0011682  77.3144 282.9370 14.75120896904915
